1 45534U 20025D   22365.05869830  .00020787  00000-0  14088-2 0  9994
2 45534  53.0536 294.8472 0001694  47.0722 313.0409 15.06439191148960
1 45534U 20025D   22365.19139040  .00013846  00000-0  94572-3 0  9997
2 45534  53.0552 294.2521 0002033  47.5271 312.5890 15.06435023148989
1 45534U 20025D   22365.52311824  .00006327  00000-0  44287-3 0  9990
2 45534  53.0550 292.7629 0002224  49.4658 310.6524 15.06433425149620
1 45534U 20025D   22365.78850441  .00007009  00000-0  48854-3 0  9993
2 45534  53.0540 291.5713 0002827  52.1473 307.9772 15.06432199149660
1 45534U 20025D   22365.98754181 -.00000497  00000-0 -14490-4 0  9995
2 45534  53.0546 290.6785 0001382  26.9242 333.1818 15.06417044149106
1 45534U 20025D   23001.18658879 -.00003715  00000-0 -23056-3 0  9995
2 45534  53.0540 289.7894 0002529  32.0230 328.0912 15.06401459149728
1 45534U 20025D   23001.18658879 -.00003715  00000-0 -23056-3 0  9995
2 45534  53.0540 289.7894 0002529  32.0230 328.0912 15.06401459149133
1 45534U 20025D   23002.04912407  .00021715  00000-0  14735-2 0  9992
2 45534  53.0544 285.9138 0001854  40.5963 319.5164 15.06366916149269
1 45534U 20025D   23002.51355617  .00020740  00000-0  14075-2 0  9992
2 45534  53.0547 283.8283 0001882  41.6615 318.4517 15.06390364149924
1 45534U 20025D   23002.77894326  .00020039  00000-0  13603-2 0  9992
2 45534  53.0547 282.6358 0001858  44.9242 315.1897 15.06402290149960
1 45534U 20025D   23003.17702454  .00014287  00000-0  97585-3 0  9997
2 45534  53.0542 280.8492 0001942  45.9443 314.1706 15.06407696150024
1 45534U 20025D   23003.17702454  .00014287  00000-0  97585-3 0  9997
2 45534  53.0542 280.8492 0001942  45.9443 314.1706 15.06407696149437
1 45534U 20025D   23004.03953538  .00002658  00000-0  19728-3 0  9996
2 45534  53.0549 276.9789 0001658  43.8291 316.2829 15.06395650149560
1 45534U 20025D   23004.43761647  .00007826  00000-0  54369-3 0  9990
2 45534  53.0547 275.1913 0001534  46.6935 313.4182 15.06400956150218
1 45534U 20025D   23005.03472927  .00012216  00000-0  83707-3 0  9994
2 45534  53.0546 272.5075 0002143  43.4492 316.6666 15.06422347149710
1 45534U 20025D   23005.43280296  .00008808  00000-0  60904-3 0  9990
2 45534  53.0545 270.7225 0001927  50.7507 309.3653 15.06425861150365
1 45534U 20025D   23005.69818527  .00006725  00000-0  46960-3 0  9994
2 45534  53.0549 269.5341 0001827  57.9854 302.1313 15.06429010150406
1 45534U 20025D   23005.69818527  .00006725  00000-0  46960-3 0  9994
2 45534  53.0549 269.5341 0001827  57.9854 302.1313 15.06429010149819
1 45534U 20025D   23006.69339671 -.00006128  00000-0 -39297-3 0  9997
2 45534  53.0548 265.0665 0001689  76.2162 283.9015 15.06390197149964
1 45534U 20025D   23006.82609361 -.00006978  00000-0 -45022-3 0  9994
2 45534  53.0531 264.4709 0001538  60.2854 299.8288 15.06385018150575
1 45534U 20025D   23007.09147915 -.00001801  00000-0 -10204-3 0  9990
2 45534  53.0534 263.2760 0001648  67.9019 292.2144 15.06399880150616
1 45534U 20025D   23007.09147915 -.00001801  00000-0 -10204-3 0  9990
2 45534  53.0534 263.2760 0001648  67.9019 292.2144 15.06399880150021
1 45534U 20025D   23007.68860345  .00002139  00000-0  16245-3 0  9998
2 45534  53.0531 260.5953 0001571  65.3586 294.7566 15.06398437150705
1 45534U 20025D   23008.08669376  .00002028  00000-0  15503-3 0  9997
2 45534  53.0528 258.8093 0001537  63.4995 296.6152 15.06388767150179
1 45534U 20025D   23008.55112518  .00004311  00000-0  30818-3 0  9993
2 45534  53.0540 256.7275 0001993  30.5080 329.6025 15.06392030150835
1 45534U 20025D   23008.81650728  .00008751  00000-0  60553-3 0  9993
2 45534  53.0532 255.5336 0001590  53.4459 306.6676 15.06407710150286
1 45534U 20025D   23008.94920134  .00010651  00000-0  73263-3 0  9992
2 45534  53.0531 254.9384 0001543  53.7669 306.3462 15.06410166150891
1 45534U 20025D   23009.47997582  .00005363  00000-0  37860-3 0  9999
2 45534  53.0530 252.5546 0001521  58.3246 301.7891 15.06404707150970
1 45534U 20025D   23009.47997582  .00005363  00000-0  37860-3 0  9999
2 45534  53.0530 252.5546 0001521  58.3246 301.7891 15.06404707150385
1 45534U 20025D   23009.81170999  .00002581  00000-0  19212-3 0  9992
2 45534  53.0536 251.0674 0002080  40.3971 319.7172 15.06400889151024
1 45534U 20025D   23010.07709675  .00003439  00000-0  24963-3 0  9993
2 45534  53.0533 249.8755 0001936  42.7670 317.3469 15.06404782151060
1 45534U 20025D   23010.07709675  .00003439  00000-0  24963-3 0  9993
2 45534  53.0533 249.8755 0001936  42.7670 317.3469 15.06404782150474
1 45534U 20025D   23010.80690968  .00003130  00000-0  22891-3 0  9994
2 45534  53.0528 246.5977 0001631  57.4461 302.6685 15.06406464151175
1 45534U 20025D   23011.33767988  .00005204  00000-0  36788-3 0  9994
2 45534  53.0526 244.2150 0001696  55.5019 304.6130 15.06413176150668
1 45534U 20025D   23011.47037306  .00004226  00000-0  30231-3 0  9993
2 45534  53.0517 243.6198 0001688  62.0722 298.0438 15.06411606151279
1 45534U 20025D   23011.93479941  .00002104  00000-0  16007-3 0  9997
2 45534  53.0519 241.5346 0001632  62.2598 297.8556 15.06407527151348
1 45534U 20025D   23011.93479941  .00002104  00000-0  16007-3 0  9997
2 45534  53.0519 241.5346 0001632  62.2598 297.8556 15.06407527150752
1 45534U 20025D   23012.73097549 -.00000736  00000-0 -30545-4 0  9991
2 45534  53.0528 237.9616 0001526  60.9830 299.1311 15.06380987150874
1 45534U 20025D   23012.93001764 -.00000926  00000-0 -43311-4 0  9993
2 45534  53.0540 237.0681 0001340  55.6119 304.4996 15.06392033151499
1 45534U 20025D   23012.93001764 -.00000926  00000-0 -43311-4 0  9993
2 45534  53.0540 237.0681 0001340  55.6119 304.4996 15.06392033150904
1 45534U 20025D   23013.59348284 -.00000333  00000-0 -34725-5 0  9999
2 45534  53.0538 234.0897 0001448  62.8308 297.2829 15.06397631151595
1 45534U 20025D   23013.72617668  .00000163  00000-0  29814-4 0  9990
2 45534  53.0537 233.4937 0001442  61.7293 298.3841 15.06396329151024
1 45534U 20025D   23013.85887008  .00000264  00000-0  36654-4 0  9993
2 45534  53.0537 232.8980 0001446  61.5339 298.5796 15.06397090151632
1 45534U 20025D   23014.72139063  .00004835  00000-0  34353-3 0  9992
2 45534  53.0533 229.0249 0001602  71.3263 288.7900 15.06372757151173
1 45534U 20025D   23014.85407678  .00001984  00000-0  15205-3 0  9993
2 45534  53.0530 228.4287 0001523  73.4222 286.6934 15.06392217151194
1 45534U 20025D   23015.31851327  .00005322  00000-0  37616-3 0  9999
2 45534  53.0531 226.3430 0001675  72.3739 287.7433 15.06375430151263
1 45534U 20025D   23015.58389430  .00000220  00000-0  33682-4 0  9991
2 45534  53.0530 225.1514 0001589  77.7445 282.3721 15.06397026151894
1 45534U 20025D   23015.78293302  .00000733  00000-0  68135-4 0  9995
2 45534  53.0532 224.2596 0001528  69.8895 290.2259 15.06398325151336
1 45534U 20025D   23015.84927935  .00000857  00000-0  76404-4 0  9993
2 45534  53.0533 223.9619 0001514  68.7414 291.3736 15.06400202151935
1 45534U 20025D   23016.57910043  .00000683  00000-0  64727-4 0  9998
2 45534  53.0531 220.6864 0001569  66.5176 293.5978 15.06392632152042
1 45534U 20025D   23016.71179646  .00001087  00000-0  91910-4 0  9993
2 45534  53.0533 220.0899 0001519  70.6080 289.5073 15.06388429151477
1 45534U 20025D   23016.84448989  .00000945  00000-0  82329-4 0  9992
2 45534  53.0535 219.4934 0001518  75.8256 284.2902 15.06390145152081
1 45534U 20025D   23017.57430624  .00000155  00000-0  29273-4 0  9992
2 45534  53.0535 216.2173 0001412  77.9775 282.1372 15.06392835152191
1 45534U 20025D   23018.23777215  .00000866  00000-0  77001-4 0  9997
2 45534  53.0536 213.2388 0001425  78.2105 281.9043 15.06397296152291
1 45534U 20025D   23018.23777215  .00000866  00000-0  77001-4 0  9997
2 45534  53.0536 213.2388 0001425  78.2105 281.9043 15.06397296151706
1 45534U 20025D   23018.83489232  .00001522  00000-0  12105-3 0  9995
2 45534  53.0537 210.5582 0001409  78.0046 282.1101 15.06398922152387
1 45534U 20025D   23019.49836650  .00000728  00000-0  67759-4 0  9991
2 45534  53.0536 207.5802 0001353  83.4282 276.6861 15.06393376151891
1 45534U 20025D   23019.56471472  .00000331  00000-0  41093-4 0  9999
2 45534  53.0537 207.2822 0001364  84.1611 275.9534 15.06392574152492
1 45534U 20025D   23019.83010375  .00004009  00000-0  28804-3 0  9990
2 45534  53.0540 206.0907 0001272  84.7176 275.3958 15.06380639151949
1 45534U 20025D   23020.49356466  .00000612  00000-0  59981-4 0  9995
2 45534  53.0540 203.1124 0001317  85.6964 274.4175 15.06400187152632
1 45534U 20025D   23020.49356466  .00000612  00000-0  59981-4 0  9995
2 45534  53.0540 203.1124 0001317  85.6964 274.4175 15.06400187152047
1 45534U 20025D   23021.68780664  .00000964  00000-0  83606-4 0  9999
2 45534  53.0547 197.7516 0001385  85.4308 274.6839 15.06397935152227
1 45534U 20025D   23022.88205193 -.00000289  00000-0 -50963-6 0  9995
2 45534  53.0532 192.3895 0001499  88.7934 271.3227 15.06396969152400
1 45534U 20025D   23023.87724871 -.00000277  00000-0  29630-6 0  9997
2 45534  53.0543 187.9218 0001422  95.2610 264.8541 15.06405699152554
1 45534U 20025D   23024.47438149 -.00000103  00000-0  11991-4 0  9991
2 45534  53.0540 185.2411 0001231  89.1864 270.9266 15.06390582152644
1 45534U 20025D   23025.46958697 -.00000825  00000-0 -36534-4 0  9998
2 45534  53.0548 180.7746 0001111  86.2248 273.8867 15.06394219153386
1 45534U 20025D   23025.66862448 -.00000090  00000-0  12861-4 0  9998
2 45534  53.0556 179.8816 0001261  93.1270 266.9863 15.06397362153415
1 45534U 20025D   23025.66862448 -.00000090  00000-0  12861-4 0  9998
2 45534  53.0556 179.8816 0001261  93.1270 266.9863 15.06397362152829
1 45534U 20025D   23026.59747903  .00000566  00000-0  56868-4 0  9991
2 45534  53.0548 175.7111 0001172  84.2570 275.8552 15.06398209153554
1 45534U 20025D   23026.73016980  .00000989  00000-0  85251-4 0  9998
2 45534  53.0549 175.1151 0001169  84.9575 275.1548 15.06401288152987
1 45534U 20025D   23027.39364308  .00000709  00000-0  66474-4 0  9997
2 45534  53.0553 172.1376 0001223  85.8361 274.2767 15.06394224153088
1 45534U 20025D   23027.59268322  .00001467  00000-0  11740-3 0  9995
2 45534  53.0554 171.2442 0001092  86.6326 273.4788 15.06392743153704
1 45534U 20025D   23027.65903028  .00001666  00000-0  13072-3 0  9992
2 45534  53.0554 170.9469 0001315  84.6025 275.5114 15.06392224153712
1 45534U 20025D   23028.12346318  .00003053  00000-0  22388-3 0  9990
2 45534  53.0546 168.8617 0001264  83.3270 276.7863 15.06381951153196
1 45534U 20025D   23028.52154055 -.00000312  00000-0 -20514-5 0  9997
2 45534  53.0548 167.0745 0001327  79.9568 280.1571 15.06395794153254
1 45534U 20025D   23028.58788689 -.00000237  00000-0  29490-5 0  9996
2 45534  53.0550 166.7768 0001348  79.7588 280.3553 15.06396512153858
1 45534U 20025D   23028.78692408 -.00000110  00000-0  11482-4 0  9992
2 45534  53.0545 165.8821 0001174  87.8669 272.2455 15.06400082153881
1 45534U 20025D   23029.78212910  .00000084  00000-0  24504-4 0  9997
2 45534  53.0554 161.4146 0001248  86.6396 273.4736 15.06398558154036
1 45534U 20025D   23029.78212910  .00000084  00000-0  24504-4 0  9997
2 45534  53.0554 161.4146 0001248  86.6396 273.4736 15.06398558153440
1 45534U 20025D   23030.37925761 -.00000165  00000-0  78465-5 0  9996
2 45534  53.0551 158.7340 0001299  82.2882 277.8254 15.06391691153534
1 45534U 20025D   23030.51194893  .00000356  00000-0  42793-4 0  9991
2 45534  53.0552 158.1387 0001247  81.6008 278.5122 15.06394367154149
1 45534U 20025D   23031.04272115 -.00000143  00000-0  93216-5 0  9996
2 45534  53.0551 155.7560 0001188  77.3374 282.7748 15.06399525153631
1 45534U 20025D   23031.30811396  .00000344  00000-0  41963-4 0  9998
2 45534  53.0542 154.5647 0001288  83.9550 276.1586 15.06391204153671
1 45534U 20025D   23031.50715383  .00000160  00000-0  29607-4 0  9996
2 45534  53.0547 153.6714 0001189  82.2671 277.8453 15.06393579154294
